ONEWEB-0043             
1 45149U 20008U   23229.40730537  .00000603  00000+0  16923-2 0  9991
2 45149  87.8802 241.7770 0001327  89.9250 270.2029 13.10377719173442
ONEWEB-0044             
1 45150U 20008V   23229.74135238 -.00000192  00000+0 -58649-3 0  9994
2 45150  87.8795 241.7093 0001576  95.5814 264.5493 13.10370799173776
ONEWEB-0045             
1 45151U 20008W   23229.42506262 -.00000046  00000+0 -16653-3 0  9996
2 45151  87.8723 226.6307 0002155  90.9192 269.2183 13.11420153175568
ONEWEB-0047             
1 45152U 20008X   23228.74077358  .00000620  00000+0  17396-2 0  9990
2 45152  87.8796 241.9089 0001915  90.0765 270.0581 13.10370139173383
ONEWEB-0048             
1 45153U 20008Y   23228.73598528  .00000270  00000+0  73605-3 0  9994
2 45153  87.8800 241.9191 0001940  88.6110 271.5239 13.10368674172970
ONEWEB-0049             
1 45154U 20008Z   23229.73022923  .00000340  00000+0  93844-3 0  9992
2 45154  87.8805 241.6891 0001897  82.9172 277.2171 13.10370723173333
ONEWEB-0051             
1 45155U 20008AA  23229.42294055 -.00000139  00000+0 -42761-3 0  9996
2 45155  87.8892 226.6210 0002179  90.4036 269.7342 13.11418554176240
ONEWEB-0052             
1 45156U 20008AB  23229.80340612  .00000485  00000+0  13541-2 0  9995
2 45156  87.8806 241.6581 0001563  65.0574 295.0716 13.10369596173238
